STARLINK-2231           
1 48577U 21041AA  26068.44748311  .00003735  00000+0  13810-3 0  9996
2 48577  53.1594 128.0140 0001251  77.7398 282.3743 15.30217025265239
TEVEL2-4                
1 63213U 25052D   26068.69417973  .00020990  00000+0  70363-3 0  9998
2 63213  97.4009 325.1237 0004733  95.3468 264.8313 15.30925813 54879
